[{"OBJECT_NAME":"STARLINK-36244","OBJECT_ID":"2026-049D","EPOCH":"2026-03-31T06:00:02.000160","MEAN_MOTION":15.75141557,"ECCENTRICITY":0.00016557,"INCLINATION":97.284,"RA_OF_ASC_NODE":110.5522,"ARG_OF_PERICENTER":86.2672,"MEAN_ANOMALY":208.9534,"EPHEMERIS_TYPE":0,"CLASSIFICATION_TYPE":"U","NORAD_CAT_ID":68145,"ELEMENT_SET_NO":999,"REV_AT_EPOCH":409,"BSTAR":0.00045388196,"MEAN_MOTION_DOT":0.00067969,"MEAN_MOTION_DDOT":0},{"OBJECT_NAME":"STARLINK-36980","OBJECT_ID":"2026-049E","EPOCH":"2026-03-31T02:55:44.865120","MEAN_MOTION":15.80875824,"ECCENTRICITY":0.0001289,"INCLINATION":97.2839,"RA_OF_ASC_NODE":110.4475,"ARG_OF_PERICENTER":86.6559,"MEAN_ANOMALY":273.4856,"EPHEMERIS_TYPE":0,"CLASSIFICATION_TYPE":"U","NORAD_CAT_ID":68146,"ELEMENT_SET_NO":999,"REV_AT_EPOCH":279,"BSTAR":0.00051926522,"MEAN_MOTION_DOT":0.00100753,"MEAN_MOTION_DDOT":0},{"OBJECT_NAME":"STARLINK-37055","OBJECT_ID":"2026-049F","EPOCH":"2026-03-31T02:57:54.733824","MEAN_MOTION":15.80899935,"ECCENTRICITY":0.00014636,"INCLINATION":97.2833,"RA_OF_ASC_NODE":110.445,"ARG_OF_PERICENTER":116.4925,"MEAN_ANOMALY":243.6493,"EPHEMERIS_TYPE":0,"CLASSIFICATION_TYPE":"U","NORAD_CAT_ID":68147,"ELEMENT_SET_NO":999,"REV_AT_EPOCH":279,"BSTAR":0.0008777181,"MEAN_MOTION_DOT":0.00171996,"MEAN_MOTION_DDOT":0},{"OBJECT_NAME":"STARLINK-36981","OBJECT_ID":"2026-049G","EPOCH":"2026-03-31T05:55:53.468832","MEAN_MOTION":15.80895531,"ECCENTRICITY":9.508e-5,"INCLINATION":97.2839,"RA_OF_ASC_NODE":110.5827,"ARG_OF_PERICENTER":61.1303,"MEAN_ANOMALY":299.0061,"EPHEMERIS_TYPE":0,"CLASSIFICATION_TYPE":"U","NORAD_CAT_ID":68148,"ELEMENT_SET_NO":999,"REV_AT_EPOCH":281,"BSTAR":0.0010755187,"MEAN_MOTION_DOT":0.00211715,"MEAN_MOTION_DDOT":0},{"OBJECT_NAME":"STARLINK-36992","OBJECT_ID":"2026-049H","EPOCH":"2026-03-31T02:52:30.205056","MEAN_MOTION":15.8088998,"ECCENTRICITY":0.00013054,"INCLINATION":97.2842,"RA_OF_ASC_NODE":110.4502,"ARG_OF_PERICENTER":35.9467,"MEAN_ANOMALY":324.1889,"EPHEMERIS_TYPE":0,"CLASSIFICATION_TYPE":"U","NORAD_CAT_ID":68149,"ELEMENT_SET_NO":999,"REV_AT_EPOCH":279,"BSTAR":0.00080800281,"MEAN_MOTION_DOT":0.00157995,"MEAN_MOTION_DDOT":0},{"OBJECT_NAME":"STARLINK-37060","OBJECT_ID":"2026-049J","EPOCH":"2026-03-31T05:53:43.479168","MEAN_MOTION":15.80913144,"ECCENTRICITY":9.038e-5,"INCLINATION":97.2837,"RA_OF_ASC_NODE":110.5852,"ARG_OF_PERICENTER":66.3539,"MEAN_ANOMALY":293.7824,"EPHEMERIS_TYPE":0,"CLASSIFICATION_TYPE":"U","NORAD_CAT_ID":68150,"ELEMENT_SET_NO":999,"REV_AT_EPOCH":281,"BSTAR":0.0012989104,"MEAN_MOTION_DOT":0.00257279,"MEAN_MOTION_DDOT":0},{"OBJECT_NAME":"STARLINK-37073","OBJECT_ID":"2026-049K","EPOCH":"2026-03-31T07:23:48.096384","MEAN_MOTION":15.80881117,"ECCENTRICITY":0.00014765,"INCLINATION":97.2838,"RA_OF_ASC_NODE":110.6532,"ARG_OF_PERICENTER":108.3621,"MEAN_ANOMALY":251.7808,"EPHEMERIS_TYPE":0,"CLASSIFICATION_TYPE":"U","NORAD_CAT_ID":68151,"ELEMENT_SET_NO":999,"REV_AT_EPOCH":282,"BSTAR":0.0010177757,"MEAN_MOTION_DOT":0.00199937,"MEAN_MOTION_DDOT":0},{"OBJECT_NAME":"STARLINK-37049","OBJECT_ID":"2026-049L","EPOCH":"2026-03-31T07:22:43.254912","MEAN_MOTION":15.80928982,"ECCENTRICITY":0.00012925,"INCLINATION":97.2838,"RA_OF_ASC_NODE":110.6545,"ARG_OF_PERICENTER":105.2033,"MEAN_ANOMALY":254.9379,"EPHEMERIS_TYPE":0,"CLASSIFICATION_TYPE":"U","NORAD_CAT_ID":68152,"ELEMENT_SET_NO":999,"REV_AT_EPOCH":282,"BSTAR":0.001657923,"MEAN_MOTION_DOT":0.00331505,"MEAN_MOTION_DDOT":0},{"OBJECT_NAME":"STARLINK-37072","OBJECT_ID":"2026-049M","EPOCH":"2026-03-31T06:00:02.000160","MEAN_MOTION":15.75269417,"ECCENTRICITY":0.00010005,"INCLINATION":97.2843,"RA_OF_ASC_NODE":110.5915,"ARG_OF_PERICENTER":83.96,"MEAN_ANOMALY":301.221,"EPHEMERIS_TYPE":0,"CLASSIFICATION_TYPE":"U","NORAD_CAT_ID":68153,"ELEMENT_SET_NO":999,"REV_AT_EPOCH":408,"BSTAR":-0.0010557194,"MEAN_MOTION_DOT":-0.00155298,"MEAN_MOTION_DDOT":0},{"OBJECT_NAME":"STARLINK-36241","OBJECT_ID":"2026-049N","EPOCH":"2026-03-31T06:10:56.447328","MEAN_MOTION":15.7522452,"ECCENTRICITY":0.00012482,"INCLINATION":97.2837,"RA_OF_ASC_NODE":110.5684,"ARG_OF_PERICENTER":94.985,"MEAN_ANOMALY":265.1557,"EPHEMERIS_TYPE":0,"CLASSIFICATION_TYPE":"U","NORAD_CAT_ID":68154,"ELEMENT_SET_NO":999,"REV_AT_EPOCH":281,"BSTAR":0.0011337401,"MEAN_MOTION_DOT":0.00172695,"MEAN_MOTION_DDOT":0},{"OBJECT_NAME":"STARLINK-37048","OBJECT_ID":"2026-049P","EPOCH":"2026-03-31T07:17:18.611232","MEAN_MOTION":15.80855537,"ECCENTRICITY":0.0001486,"INCLINATION":97.2843,"RA_OF_ASC_NODE":110.6589,"ARG_OF_PERICENTER":118.8419,"MEAN_ANOMALY":241.2999,"EPHEMERIS_TYPE":0,"CLASSIFICATION_TYPE":"U","NORAD_CAT_ID":68155,"ELEMENT_SET_NO":999,"REV_AT_EPOCH":282,"BSTAR":0.00069751328,"MEAN_MOTION_DOT":0.0013581,"MEAN_MOTION_DDOT":0},{"OBJECT_NAME":"STARLINK-36313","OBJECT_ID":"2026-049Q","EPOCH":"2026-03-31T07:18:23.664384","MEAN_MOTION":15.80853447,"ECCENTRICITY":0.00012513,"INCLINATION":97.2846,"RA_OF_ASC_NODE":110.6574,"ARG_OF_PERICENTER":79.9712,"MEAN_ANOMALY":280.1697,"EPHEMERIS_TYPE":0,"CLASSIFICATION_TYPE":"U","NORAD_CAT_ID":68156,"ELEMENT_SET_NO":999,"REV_AT_EPOCH":282,"BSTAR":0.00080150051,"MEAN_MOTION_DOT":0.00156433,"MEAN_MOTION_DDOT":0},{"OBJECT_NAME":"STARLINK-37064","OBJECT_ID":"2026-049R","EPOCH":"2026-03-31T07:20:33.478656","MEAN_MOTION":15.80870945,"ECCENTRICITY":0.00013229,"INCLINATION":97.2848,"RA_OF_ASC_NODE":110.6555,"ARG_OF_PERICENTER":78.273,"MEAN_ANOMALY":281.8687,"EPHEMERIS_TYPE":0,"CLASSIFICATION_TYPE":"U","NORAD_CAT_ID":68157,"ELEMENT_SET_NO":999,"REV_AT_EPOCH":282,"BSTAR":0.00095191783,"MEAN_MOTION_DOT":0.00186615,"MEAN_MOTION_DDOT":0},{"OBJECT_NAME":"STARLINK-37069","OBJECT_ID":"2026-049S","EPOCH":"2026-03-31T04:34:22.545408","MEAN_MOTION":15.75240815,"ECCENTRICITY":0.00012257,"INCLINATION":97.2839,"RA_OF_ASC_NODE":110.5065,"ARG_OF_PERICENTER":76.902,"MEAN_ANOMALY":283.2382,"EPHEMERIS_TYPE":0,"CLASSIFICATION_TYPE":"U","NORAD_CAT_ID":68158,"ELEMENT_SET_NO":999,"REV_AT_EPOCH":280,"BSTAR":0.001049923,"MEAN_MOTION_DOT":0.00159787,"MEAN_MOTION_DDOT":0},{"OBJECT_NAME":"STARLINK-37053","OBJECT_ID":"2026-049T","EPOCH":"2026-03-31T05:42:54.441504","MEAN_MOTION":15.80867348,"ECCENTRICITY":0.00013357,"INCLINATION":97.285,"RA_OF_ASC_NODE":110.5942,"ARG_OF_PERICENTER":119.7707,"MEAN_ANOMALY":240.3694,"EPHEMERIS_TYPE":0,"CLASSIFICATION_TYPE":"U","NORAD_CAT_ID":68159,"ELEMENT_SET_NO":999,"REV_AT_EPOCH":281,"BSTAR":0.00063082558,"MEAN_MOTION_DOT":0.00122691,"MEAN_MOTION_DDOT":0},{"OBJECT_NAME":"STARLINK-36306","OBJECT_ID":"2026-049U","EPOCH":"2026-03-31T06:00:02.000160","MEAN_MOTION":15.75100974,"ECCENTRICITY":0.00013552,"INCLINATION":97.2841,"RA_OF_ASC_NODE":110.5798,"ARG_OF_PERICENTER":92.6824,"MEAN_ANOMALY":266.5378,"EPHEMERIS_TYPE":0,"CLASSIFICATION_TYPE":"U","NORAD_CAT_ID":68160,"ELEMENT_SET_NO":999,"REV_AT_EPOCH":409,"BSTAR":0.00084245257,"MEAN_MOTION_DOT":0.00126922,"MEAN_MOTION_DDOT":0}]
